{"fetched_at":"2026-03-29T16:36:15Z","count":15609,"tles":[{"name":"STARLINK-30146","line1":"1 57442U 23105N   26087.87007852  .00005118  00000+0  19530-3 0  9998","line2":"2 57442  43.0034 151.6574 0001496 265.9895  94.0786 15.27592628148577","category":"Starlink"}]}